STARLINK-31886          
1 59662U 24084J   26068.31215115 -.00001996  00000+0 -63018-4 0  9995
2 59662  43.0081  44.0830 0001695 279.9777  80.0883 15.27572869104312
FLOCK 4G-21             
1 62651U 25009AU  26068.19487675  .00013648  00000+0  49619-3 0  9998
2 62651  97.4032 151.1274 0000465 329.5782  30.5431 15.28381075 63677
